{
"type": "FeatureCollection",
"name": "eng-region-from-hex",
"crs": { "type": "name", "properties": { "name": "urn:ogc:def:crs:EPSG::3857" } },
"features": [
{ "type": "Feature", "properties": { "fid": 1.0, "CTR_REG": "East Midlands" }, "geometry": { "type": "MultiPolygon", "coordinates": [ [ [ [ -241782.719099998532329, 7271412.36640000436455 ], [ -231679.089400000870228, 7253912.366400003433228 ], [ -211471.829999998182757, 7253912.366400003433228 ], [ -201368.20030000054976, 7271412.36640000436455 ], [ -181160.940799999982119, 7271412.36640000436455 ], [ -171057.311099998682039, 7253912.366400003433228 ], [ -181160.940799999982119, 7236412.366400003433228 ], [ -171057.311099998682039, 7218912.366400003433228 ], [ -181160.940799999982119, 7201412.366400003433228 ], [ -171057.311099998682039, 7183912.36640000436455 ], [ -150850.051699999690754, 7183912.36640000436455 ], [ -140746.421999998361571, 7166412.366400003433228 ], [ -120539.162599999443046, 7166412.366400003433228 ], [ -110435.532900001824601, 7148912.366400003433228 ], [ -90228.27340000125696, 7148912.366400003433228 ], [ -80124.643699999855016, 7166412.366400003433228 ], [ -59917.384300000943767, 7166412.366400003433228 ], [ -49813.754599999643688, 7183912.36640000436455 ], [ -29606.495200000728801, 7183912.36640000436455 ], [ -19502.865499999315944, 7201412.366400003433228 ], [ 704.394000001239988, 7201412.366400003433228 ], [ 10808.023699998862867, 7183912.36640000436455 ], [ 704.394000001239988, 7166412.366400003433228 ], [ 10808.023699998862867, 7148912.366400003433228 ], [ 704.394000001239988, 7131412.366400003433228 ], [ 10808.023699998862867, 7113912.366400003433228 ], [ 31015.283100001459388, 7113912.366400003433228 ], [ 41118.912799999081471, 7096412.366400005295873 ], [ 31015.283100001459388, 7078912.366400002501905 ], [ 41118.912799999081471, 7061412.366400003433228 ], [ 31015.283100001459388, 7043912.366400002501905 ], [ 41118.912799999081471, 7026412.366400002501905 ], [ 31015.283100001459388, 7008912.366400003433228 ], [ 10808.023699998862867, 7008912.366400003433228 ], [ 704.394000001239988, 7026412.366400002501905 ], [ -19502.865499999315944, 7026412.366400002501905 ], [ -29606.495200000728801, 7043912.366400002501905 ], [ -49813.754599999643688, 7043912.366400002501905 ], [ -59917.384300000943767, 7061412.366400003433228 ], [ -80124.643699999855016, 7061412.366400003433228 ], [ -90228.27340000125696, 7043912.366400002501905 ], [ -110435.532900001824601, 7043912.366400002501905 ], [ -120539.162599999443046, 7026412.366400002501905 ], [ -140746.421999998361571, 7026412.366400002501905 ], [ -150850.051699999690754, 7008912.366400003433228 ], [ -171057.311099998682039, 7008912.366400003433228 ], [ -181160.940799999982119, 6991412.366400002501905 ], [ -201368.20030000054976, 6991412.366400002501905 ], [ -211471.829999998182757, 7008912.366400003433228 ], [ -201368.20030000054976, 7026412.366400002501905 ], [ -211471.829999998182757, 7043912.366400002501905 ], [ -201368.20030000054976, 7061412.366400003433228 ], [ -211471.829999998182757, 7078912.366400002501905 ], [ -201368.20030000054976, 7096412.366400005295873 ], [ -211471.829999998182757, 7113912.366400003433228 ], [ -231679.089400000870228, 7113912.366400003433228 ], [ -241782.719099998532329, 7131412.366400003433228 ], [ -261989.978500001103384, 7131412.366400003433228 ], [ -272093.608199998736382, 7148912.366400003433228 ], [ -261989.978500001103384, 7166412.366400003433228 ], [ -272093.608199998736382, 7183912.36640000436455 ], [ -292300.867600001394749, 7183912.36640000436455 ], [ -302404.497400000633206, 7201412.366400003433228 ], [ -292300.867600001394749, 7218912.366400003433228 ], [ -302404.497400000633206, 7236412.366400003433228 ], [ -292300.867600001394749, 7253912.366400003433228 ], [ -302404.497400000633206, 7271412.36640000436455 ], [ -292300.867600001394749, 7288912.366400003433228 ], [ -272093.608199998736382, 7288912.366400003433228 ], [ -261989.978500001103384, 7306412.36640000436455 ], [ -241782.719099998532329, 7306412.36640000436455 ], [ -231679.089400000870228, 7288912.366400003433228 ], [ -241782.719099998532329, 7271412.36640000436455 ] ] ] ] } },
{ "type": "Feature", "properties": { "fid": 2.0, "CTR_REG": "East of England" }, "geometry": { "type": "MultiPolygon", "coordinates": [ [ [ [ -59917.384300000943767, 7061412.366400003433228 ], [ -49813.754599999643688, 7043912.366400002501905 ], [ -29606.495200000728801, 7043912.366400002501905 ], [ -19502.865499999315944, 7026412.366400002501905 ], [ 704.394000001239988, 7026412.366400002501905 ], [ 10808.023699998862867, 7008912.366400003433228 ], [ 31015.283100001459388, 7008912.366400003433228 ], [ 41118.912799999081471, 7026412.366400002501905 ], [ 61326.172200001776218, 7026412.366400002501905 ], [ 71429.801899999409216, 7008912.366400003433228 ], [ 91637.061399999976857, 7008912.366400003433228 ], [ 101740.691100001364248, 6991412.366400002501905 ], [ 121947.950500000311877, 6991412.366400002501905 ], [ 132051.580200001597404, 6973912.366400002501905 ], [ 152258.839600000501378, 6973912.366400002501905 ], [ 162362.469300001801457, 6956412.366400002501905 ], [ 182569.728799998672912, 6956412.366400002501905 ], [ 192673.358500000118511, 6938912.366400002501905 ], [ 212880.61789999899338, 6938912.366400002501905 ], [ 222984.24760000029346, 6921412.366400002501905 ], [ 212880.61789999899338, 6903912.366400001570582 ], [ 222984.24760000029346, 6886412.36640000436455 ], [ 212880.61789999899338, 6868912.36640000436455 ], [ 222984.24760000029346, 6851412.366400002501905 ], [ 212880.61789999899338, 6833912.366400002501905 ], [ 222984.24760000029346, 6816412.366400002501905 ], [ 212880.61789999899338, 6798912.366400002501905 ], [ 222984.24760000029346, 6781412.366400003433228 ], [ 212880.61789999899338, 6763912.366400003433228 ], [ 192673.358500000118511, 6763912.366400003433228 ], [ 182569.728799998672912, 6746412.366400003433228 ], [ 162362.469300001801457, 6746412.366400003433228 ], [ 152258.839600000501378, 6728912.36640000436455 ], [ 132051.580200001597404, 6728912.36640000436455 ], [ 121947.950500000311877, 6746412.366400003433228 ], [ 101740.691100001364248, 6746412.366400003433228 ], [ 91637.061399999976857, 6728912.36640000436455 ], [ 71429.801899999409216, 6728912.36640000436455 ], [ 61326.172200001776218, 6746412.366400003433228 ], [ 71429.801899999409216, 6763912.366400003433228 ], [ 61326.172200001776218, 6781412.366400003433228 ], [ 71429.801899999409216, 6798912.366400002501905 ], [ 61326.172200001776218, 6816412.366400002501905 ], [ 71429.801899999409216, 6833912.366400002501905 ], [ 61326.172200001776218, 6851412.366400002501905 ], [ 41118.912799999081471, 6851412.366400002501905 ], [ 31015.283100001459388, 6868912.36640000436455 ], [ 41118.912799999081471, 6886412.36640000436455 ], [ 31015.283100001459388, 6903912.366400001570582 ], [ 10808.023699998862867, 6903912.366400001570582 ], [ 704.394000001239988, 6921412.366400002501905 ], [ 10808.023699998862867, 6938912.366400002501905 ], [ 704.394000001239988, 6956412.366400002501905 ], [ -19502.865499999315944, 6956412.366400002501905 ], [ -29606.495200000728801, 6973912.366400002501905 ], [ -49813.754599999643688, 6973912.366400002501905 ], [ -59917.384300000943767, 6956412.366400002501905 ], [ -80124.643699999855016, 6956412.366400002501905 ], [ -90228.27340000125696, 6973912.366400002501905 ], [ -110435.532900001824601, 6973912.366400002501905 ], [ -120539.162599999443046, 6956412.366400002501905 ], [ -140746.421999998361571, 6956412.366400002501905 ], [ -150850.051699999690754, 6938912.366400002501905 ], [ -171057.311099998682039, 6938912.366400002501905 ], [ -181160.940799999982119, 6921412.366400002501905 ], [ -201368.20030000054976, 6921412.366400002501905 ], [ -211471.829999998182757, 6903912.366400001570582 ], [ -231679.089400000870228, 6903912.366400001570582 ], [ -241782.719099998532329, 6886412.36640000436455 ], [ -231679.089400000870228, 6868912.36640000436455 ], [ -241782.719099998532329, 6851412.366400002501905 ], [ -261989.978500001103384, 6851412.366400002501905 ], [ -272093.608199998736382, 6868912.36640000436455 ], [ -261989.978500001103384, 6886412.36640000436455 ], [ -272093.608199998736382, 6903912.366400001570582 ], [ -261989.978500001103384, 6921412.366400002501905 ], [ -272093.608199998736382, 6938912.366400002501905 ], [ -261989.978500001103384, 6956412.366400002501905 ], [ -241782.719099998532329, 6956412.366400002501905 ], [ -231679.089400000870228, 6973912.366400002501905 ], [ -211471.829999998182757, 6973912.366400002501905 ], [ -201368.20030000054976, 6991412.366400002501905 ], [ -181160.940799999982119, 6991412.366400002501905 ], [ -171057.311099998682039, 7008912.366400003433228 ], [ -150850.051699999690754, 7008912.366400003433228 ], [ -140746.421999998361571, 7026412.366400002501905 ], [ -120539.162599999443046, 7026412.366400002501905 ], [ -110435.532900001824601, 7043912.366400002501905 ], [ -90228.27340000125696, 7043912.366400002501905 ], [ -80124.643699999855016, 7061412.366400003433228 ], [ -59917.384300000943767, 7061412.366400003433228 ] ] ] ] } },
{ "type": "Feature", "properties": { "fid": 3.0, "CTR_REG": "Greater London" }, "geometry": { "type": "MultiPolygon", "coordinates": [ [ [ [ -29606.495200000728801, 6973912.366400002501905 ], [ -19502.865499999315944, 6956412.366400002501905 ], [ 704.394000001239988, 6956412.366400002501905 ], [ 10808.023699998862867, 6938912.366400002501905 ], [ 704.394000001239988, 6921412.366400002501905 ], [ 10808.023699998862867, 6903912.366400001570582 ], [ 31015.283100001459388, 6903912.366400001570582 ], [ 41118.912799999081471, 6886412.36640000436455 ], [ 31015.283100001459388, 6868912.36640000436455 ], [ 41118.912799999081471, 6851412.366400002501905 ], [ 61326.172200001776218, 6851412.366400002501905 ], [ 71429.801899999409216, 6833912.366400002501905 ], [ 61326.172200001776218, 6816412.366400002501905 ], [ 71429.801899999409216, 6798912.366400002501905 ], [ 61326.172200001776218, 6781412.366400003433228 ], [ 71429.801899999409216, 6763912.366400003433228 ], [ 61326.172200001776218, 6746412.366400003433228 ], [ 71429.801899999409216, 6728912.36640000436455 ], [ 61326.172200001776218, 6711412.366400001570582 ], [ 41118.912799999081471, 6711412.366400001570582 ], [ 31015.283100001459388, 6693912.366400003433228 ], [ 10808.023699998862867, 6693912.366400003433228 ], [ 704.394000001239988, 6676412.366400003433228 ], [ -19502.865499999315944, 6676412.366400003433228 ], [ -29606.495200000728801, 6658912.366400003433228 ], [ -49813.754599999643688, 6658912.366400003433228 ], [ -59917.384300000943767, 6641412.366400003433228 ], [ -80124.643699999855016, 6641412.366400003433228 ], [ -90228.27340000125696, 6658912.366400003433228 ], [ -110435.532900001824601, 6658912.366400003433228 ], [ -120539.162599999443046, 6641412.366400003433228 ], [ -140746.421999998361571, 6641412.366400003433228 ], [ -150850.051699999690754, 6658912.366400003433228 ], [ -171057.311099998682039, 6658912.366400003433228 ], [ -181160.940799999982119, 6676412.366400003433228 ], [ -201368.20030000054976, 6676412.366400003433228 ], [ -211471.829999998182757, 6693912.366400003433228 ], [ -231679.089400000870228, 6693912.366400003433228 ], [ -241782.719099998532329, 6711412.366400001570582 ], [ -231679.089400000870228, 6728912.36640000436455 ], [ -241782.719099998532329, 6746412.366400003433228 ], [ -231679.089400000870228, 6763912.366400003433228 ], [ -241782.719099998532329, 6781412.366400003433228 ], [ -231679.089400000870228, 6798912.366400002501905 ], [ -241782.719099998532329, 6816412.366400002501905 ], [ -231679.089400000870228, 6833912.366400002501905 ], [ -241782.719099998532329, 6851412.366400002501905 ], [ -231679.089400000870228, 6868912.36640000436455 ], [ -241782.719099998532329, 6886412.36640000436455 ], [ -231679.089400000870228, 6903912.366400001570582 ], [ -211471.829999998182757, 6903912.366400001570582 ], [ -201368.20030000054976, 6921412.366400002501905 ], [ -181160.940799999982119, 6921412.366400002501905 ], [ -171057.311099998682039, 6938912.366400002501905 ], [ -150850.051699999690754, 6938912.366400002501905 ], [ -140746.421999998361571, 6956412.366400002501905 ], [ -120539.162599999443046, 6956412.366400002501905 ], [ -110435.532900001824601, 6973912.366400002501905 ], [ -90228.27340000125696, 6973912.366400002501905 ], [ -80124.643699999855016, 6956412.366400002501905 ], [ -59917.384300000943767, 6956412.366400002501905 ], [ -49813.754599999643688, 6973912.366400002501905 ], [ -29606.495200000728801, 6973912.366400002501905 ] ] ] ] } },
{ "type": "Feature", "properties": { "fid": 4.0, "CTR_REG": "North East" }, "geometry": { "type": "MultiPolygon", "coordinates": [ [ [ [ -181160.940799999982119, 7621412.366400003433228 ], [ -171057.311099998682039, 7603912.366400003433228 ], [ -150850.051699999690754, 7603912.366400003433228 ], [ -140746.421999998361571, 7586412.366400003433228 ], [ -120539.162599999443046, 7586412.366400003433228 ], [ -110435.532900001824601, 7568912.366400003433228 ], [ -120539.162599999443046, 7551412.366400002501905 ], [ -110435.532900001824601, 7533912.366400002501905 ], [ -90228.27340000125696, 7533912.366400002501905 ], [ -80124.643699999855016, 7516412.36640000436455 ], [ -59917.384300000943767, 7516412.36640000436455 ], [ -49813.754599999643688, 7498912.366400001570582 ], [ -59917.384300000943767, 7481412.366400002501905 ], [ -49813.754599999643688, 7463912.366400002501905 ], [ -59917.384300000943767, 7446412.36640000436455 ], [ -49813.754599999643688, 7428912.366400002501905 ], [ -59917.384300000943767, 7411412.366400002501905 ], [ -80124.643699999855016, 7411412.366400002501905 ], [ -90228.27340000125696, 7428912.366400002501905 ], [ -110435.532900001824601, 7428912.366400002501905 ], [ -120539.162599999443046, 7446412.36640000436455 ], [ -140746.421999998361571, 7446412.36640000436455 ], [ -150850.051699999690754, 7463912.366400002501905 ], [ -171057.311099998682039, 7463912.366400002501905 ], [ -181160.940799999982119, 7446412.36640000436455 ], [ -201368.20030000054976, 7446412.36640000436455 ], [ -211471.829999998182757, 7463912.366400002501905 ], [ -231679.089400000870228, 7463912.366400002501905 ], [ -241782.719099998532329, 7481412.366400002501905 ], [ -231679.089400000870228, 7498912.366400001570582 ], [ -241782.719099998532329, 7516412.36640000436455 ], [ -261989.978500001103384, 7516412.36640000436455 ], [ -272093.608199998736382, 7533912.366400002501905 ], [ -261989.978500001103384, 7551412.366400002501905 ], [ -272093.608199998736382, 7568912.366400003433228 ], [ -292300.867600001394749, 7568912.366400003433228 ], [ -302404.497400000633206, 7586412.366400003433228 ], [ -292300.867600001394749, 7603912.366400003433228 ], [ -272093.608199998736382, 7603912.366400003433228 ], [ -261989.978500001103384, 7621412.366400003433228 ], [ -241782.719099998532329, 7621412.366400003433228 ], [ -231679.089400000870228, 7603912.366400003433228 ], [ -211471.829999998182757, 7603912.366400003433228 ], [ -201368.20030000054976, 7621412.366400003433228 ], [ -181160.940799999982119, 7621412.366400003433228 ] ] ] ] } },
{ "type": "Feature", "properties": { "fid": 5.0, "CTR_REG": "North West" }, "geometry": { "type": "MultiPolygon", "coordinates": [ [ [ [ -302404.497400000633206, 7586412.366400003433228 ], [ -292300.867600001394749, 7568912.366400003433228 ], [ -272093.608199998736382, 7568912.366400003433228 ], [ -261989.978500001103384, 7551412.366400002501905 ], [ -272093.608199998736382, 7533912.366400002501905 ], [ -261989.978500001103384, 7516412.36640000436455 ], [ -241782.719099998532329, 7516412.36640000436455 ], [ -231679.089400000870228, 7498912.366400001570582 ], [ -241782.719099998532329, 7481412.366400002501905 ], [ -231679.089400000870228, 7463912.366400002501905 ], [ -211471.829999998182757, 7463912.366400002501905 ], [ -201368.20030000054976, 7446412.36640000436455 ], [ -181160.940799999982119, 7446412.36640000436455 ], [ -171057.311099998682039, 7428912.366400002501905 ], [ -181160.940799999982119, 7411412.366400002501905 ], [ -201368.20030000054976, 7411412.366400002501905 ], [ -211471.829999998182757, 7393912.366400002501905 ], [ -201368.20030000054976, 7376412.366400002501905 ], [ -211471.829999998182757, 7358912.366400002501905 ], [ -201368.20030000054976, 7341412.366400003433228 ], [ -211471.829999998182757, 7323912.366400003433228 ], [ -231679.089400000870228, 7323912.366400003433228 ], [ -241782.719099998532329, 7306412.36640000436455 ], [ -261989.978500001103384, 7306412.36640000436455 ], [ -272093.608199998736382, 7288912.366400003433228 ], [ -292300.867600001394749, 7288912.366400003433228 ], [ -302404.497400000633206, 7271412.36640000436455 ], [ -322611.756799999566283, 7271412.36640000436455 ], [ -332715.386500000895467, 7253912.366400003433228 ], [ -352922.645899999828544, 7253912.366400003433228 ], [ -363026.275600001274142, 7236412.366400003433228 ], [ -352922.645899999828544, 7218912.366400003433228 ], [ -363026.275600001274142, 7201412.366400003433228 ], [ -352922.645899999828544, 7183912.36640000436455 ], [ -363026.275600001274142, 7166412.366400003433228 ], [ -352922.645899999828544, 7148912.366400003433228 ], [ -363026.275600001274142, 7131412.366400003433228 ], [ -383233.535000000149012, 7131412.366400003433228 ], [ -393337.164799999387469, 7113912.366400003433228 ], [ -383233.535000000149012, 7096412.366400005295873 ], [ -393337.164799999387469, 7078912.366400002501905 ], [ -413544.424199998320546, 7078912.366400002501905 ], [ -423648.053899999766145, 7061412.366400003433228 ], [ -443855.313299998582806, 7061412.366400003433228 ], [ -453958.942999999853782, 7078912.366400002501905 ], [ -443855.313299998582806, 7096412.366400005295873 ], [ -453958.942999999853782, 7113912.366400003433228 ], [ -474166.202399998903275, 7113912.366400003433228 ], [ -484269.832199998141732, 7131412.366400003433228 ], [ -504477.091600000858307, 7131412.366400003433228 ], [ -514580.721299998403993, 7148912.366400003433228 ], [ -504477.091600000858307, 7166412.366400003433228 ], [ -514580.721299998403993, 7183912.36640000436455 ], [ -504477.091600000858307, 7201412.366400003433228 ], [ -514580.721299998403993, 7218912.366400003433228 ], [ -504477.091600000858307, 7236412.366400003433228 ], [ -484269.832199998141732, 7236412.366400003433228 ], [ -474166.202399998903275, 7253912.366400003433228 ], [ -484269.832199998141732, 7271412.36640000436455 ], [ -474166.202399998903275, 7288912.366400003433228 ], [ -484269.832199998141732, 7306412.36640000436455 ], [ -474166.202399998903275, 7323912.366400003433228 ], [ -453958.942999999853782, 7323912.366400003433228 ], [ -443855.313299998582806, 7341412.366400003433228 ], [ -423648.053899999766145, 7341412.366400003433228 ], [ -413544.424199998320546, 7358912.366400002501905 ], [ -423648.053899999766145, 7376412.366400002501905 ], [ -413544.424199998320546, 7393912.366400002501905 ], [ -423648.053899999766145, 7411412.366400002501905 ], [ -413544.424199998320546, 7428912.366400002501905 ], [ -393337.164799999387469, 7428912.366400002501905 ], [ -383233.535000000149012, 7446412.36640000436455 ], [ -363026.275600001274142, 7446412.36640000436455 ], [ -352922.645899999828544, 7463912.366400002501905 ], [ -363026.275600001274142, 7481412.366400002501905 ], [ -352922.645899999828544, 7498912.366400001570582 ], [ -363026.275600001274142, 7516412.36640000436455 ], [ -352922.645899999828544, 7533912.366400002501905 ], [ -363026.275600001274142, 7551412.366400002501905 ], [ -352922.645899999828544, 7568912.366400003433228 ], [ -332715.386500000895467, 7568912.366400003433228 ], [ -322611.756799999566283, 7586412.366400003433228 ], [ -302404.497400000633206, 7586412.366400003433228 ] ] ] ] } },
{ "type": "Feature", "properties": { "fid": 6.0, "CTR_REG": "South East" }, "geometry": { "type": "MultiPolygon", "coordinates": [ [ [ [ -272093.608199998736382, 6518912.366400003433228 ], [ -261989.978500001103384, 6501412.366400003433228 ], [ -241782.719099998532329, 6501412.366400003433228 ], [ -231679.089400000870228, 6483912.366400003433228 ], [ -241782.719099998532329, 6466412.366400002501905 ], [ -261989.978500001103384, 6466412.366400002501905 ], [ -272093.608199998736382, 6483912.366400003433228 ], [ -292300.867600001394749, 6483912.366400003433228 ], [ -302404.497400000633206, 6501412.366400003433228 ], [ -292300.867600001394749, 6518912.366400003433228 ], [ -272093.608199998736382, 6518912.366400003433228 ] ] ], [ [ [ -272093.608199998736382, 6868912.36640000436455 ], [ -261989.978500001103384, 6851412.366400002501905 ], [ -241782.719099998532329, 6851412.366400002501905 ], [ -231679.089400000870228, 6833912.366400002501905 ], [ -241782.719099998532329, 6816412.366400002501905 ], [ -231679.089400000870228, 6798912.366400002501905 ], [ -241782.719099998532329, 6781412.366400003433228 ], [ -231679.089400000870228, 6763912.366400003433228 ], [ -241782.719099998532329, 6746412.366400003433228 ], [ -231679.089400000870228, 6728912.36640000436455 ], [ -241782.719099998532329, 6711412.366400001570582 ], [ -231679.089400000870228, 6693912.366400003433228 ], [ -211471.829999998182757, 6693912.366400003433228 ], [ -201368.20030000054976, 6676412.366400003433228 ], [ -181160.940799999982119, 6676412.366400003433228 ], [ -171057.311099998682039, 6658912.366400003433228 ], [ -150850.051699999690754, 6658912.366400003433228 ], [ -140746.421999998361571, 6641412.366400003433228 ], [ -120539.162599999443046, 6641412.366400003433228 ], [ -110435.532900001824601, 6658912.366400003433228 ], [ -90228.27340000125696, 6658912.366400003433228 ], [ -80124.643699999855016, 6641412.366400003433228 ], [ -59917.384300000943767, 6641412.366400003433228 ], [ -49813.754599999643688, 6658912.366400003433228 ], [ -29606.495200000728801, 6658912.366400003433228 ], [ -19502.865499999315944, 6676412.366400003433228 ], [ 704.394000001239988, 6676412.366400003433228 ], [ 10808.023699998862867, 6693912.366400003433228 ], [ 31015.283100001459388, 6693912.366400003433228 ], [ 41118.912799999081471, 6711412.366400001570582 ], [ 61326.172200001776218, 6711412.366400001570582 ], [ 71429.801899999409216, 6728912.36640000436455 ], [ 91637.061399999976857, 6728912.36640000436455 ], [ 101740.691100001364248, 6746412.366400003433228 ], [ 121947.950500000311877, 6746412.366400003433228 ], [ 132051.580200001597404, 6728912.36640000436455 ], [ 152258.839600000501378, 6728912.36640000436455 ], [ 162362.469300001801457, 6746412.366400003433228 ], [ 182569.728799998672912, 6746412.366400003433228 ], [ 192673.358500000118511, 6728912.36640000436455 ], [ 212880.61789999899338, 6728912.36640000436455 ], [ 222984.24760000029346, 6711412.366400001570582 ], [ 243191.506999999372056, 6711412.366400001570582 ], [ 253295.136700000613928, 6693912.366400003433228 ], [ 273502.396200001181569, 6693912.366400003433228 ], [ 283606.02589999884367, 6676412.366400003433228 ], [ 273502.396200001181569, 6658912.366400003433228 ], [ 253295.136700000613928, 6658912.366400003433228 ], [ 243191.506999999372056, 6641412.366400003433228 ], [ 222984.24760000029346, 6641412.366400003433228 ], [ 212880.61789999899338, 6623912.366400003433228 ], [ 192673.358500000118511, 6623912.366400003433228 ], [ 182569.728799998672912, 6606412.366400003433228 ], [ 162362.469300001801457, 6606412.366400003433228 ], [ 152258.839600000501378, 6588912.366400003433228 ], [ 132051.580200001597404, 6588912.366400003433228 ], [ 121947.950500000311877, 6571412.366400003433228 ], [ 101740.691100001364248, 6571412.366400003433228 ], [ 91637.061399999976857, 6588912.366400003433228 ], [ 71429.801899999409216, 6588912.366400003433228 ], [ 61326.172200001776218, 6571412.366400003433228 ], [ 41118.912799999081471, 6571412.366400003433228 ], [ 31015.283100001459388, 6553912.366400005295873 ], [ 10808.023699998862867, 6553912.366400005295873 ], [ 704.394000001239988, 6571412.366400003433228 ], [ -19502.865499999315944, 6571412.366400003433228 ], [ -29606.495200000728801, 6553912.366400005295873 ], [ -49813.754599999643688, 6553912.366400005295873 ], [ -59917.384300000943767, 6571412.366400003433228 ], [ -80124.643699999855016, 6571412.366400003433228 ], [ -90228.27340000125696, 6553912.366400005295873 ], [ -110435.532900001824601, 6553912.366400005295873 ], [ -120539.162599999443046, 6571412.366400003433228 ], [ -140746.421999998361571, 6571412.366400003433228 ], [ -150850.051699999690754, 6553912.366400005295873 ], [ -171057.311099998682039, 6553912.366400005295873 ], [ -181160.940799999982119, 6536412.366400003433228 ], [ -201368.20030000054976, 6536412.366400003433228 ], [ -211471.829999998182757, 6518912.366400003433228 ], [ -231679.089400000870228, 6518912.366400003433228 ], [ -241782.719099998532329, 6536412.366400003433228 ], [ -261989.978500001103384, 6536412.366400003433228 ], [ -272093.608199998736382, 6553912.366400005295873 ], [ -292300.867600001394749, 6553912.366400005295873 ], [ -302404.497400000633206, 6536412.366400003433228 ], [ -322611.756799999566283, 6536412.366400003433228 ], [ -332715.386500000895467, 6553912.366400005295873 ], [ -322611.756799999566283, 6571412.366400003433228 ], [ -332715.386500000895467, 6588912.366400003433228 ], [ -322611.756799999566283, 6606412.366400003433228 ], [ -332715.386500000895467, 6623912.366400003433228 ], [ -322611.756799999566283, 6641412.366400003433228 ], [ -332715.386500000895467, 6658912.366400003433228 ], [ -322611.756799999566283, 6676412.366400003433228 ], [ -332715.386500000895467, 6693912.366400003433228 ], [ -322611.756799999566283, 6711412.366400001570582 ], [ -332715.386500000895467, 6728912.36640000436455 ], [ -322611.756799999566283, 6746412.366400003433228 ], [ -332715.386500000895467, 6763912.366400003433228 ], [ -352922.645899999828544, 6763912.366400003433228 ], [ -363026.275600001274142, 6781412.366400003433228 ], [ -383233.535000000149012, 6781412.366400003433228 ], [ -393337.164799999387469, 6763912.366400003433228 ], [ -413544.424199998320546, 6763912.366400003433228 ], [ -423648.053899999766145, 6781412.366400003433228 ], [ -413544.424199998320546, 6798912.366400002501905 ], [ -423648.053899999766145, 6816412.366400002501905 ], [ -413544.424199998320546, 6833912.366400002501905 ], [ -393337.164799999387469, 6833912.366400002501905 ], [ -383233.535000000149012, 6851412.366400002501905 ], [ -363026.275600001274142, 6851412.366400002501905 ], [ -352922.645899999828544, 6833912.366400002501905 ], [ -332715.386500000895467, 6833912.366400002501905 ], [ -322611.756799999566283, 6851412.366400002501905 ], [ -302404.497400000633206, 6851412.366400002501905 ], [ -292300.867600001394749, 6868912.36640000436455 ], [ -272093.608199998736382, 6868912.36640000436455 ] ] ] ] } },
{ "type": "Feature", "properties": { "fid": 7.0, "CTR_REG": "South West" }, "geometry": { "type": "MultiPolygon", "coordinates": [ [ [ [ -363026.275600001274142, 6781412.366400003433228 ], [ -352922.645899999828544, 6763912.366400003433228 ], [ -332715.386500000895467, 6763912.366400003433228 ], [ -322611.756799999566283, 6746412.366400003433228 ], [ -332715.386500000895467, 6728912.36640000436455 ], [ -322611.756799999566283, 6711412.366400001570582 ], [ -332715.386500000895467, 6693912.366400003433228 ], [ -322611.756799999566283, 6676412.366400003433228 ], [ -332715.386500000895467, 6658912.366400003433228 ], [ -322611.756799999566283, 6641412.366400003433228 ], [ -332715.386500000895467, 6623912.366400003433228 ], [ -322611.756799999566283, 6606412.366400003433228 ], [ -332715.386500000895467, 6588912.366400003433228 ], [ -322611.756799999566283, 6571412.366400003433228 ], [ -332715.386500000895467, 6553912.366400005295873 ], [ -352922.645899999828544, 6553912.366400005295873 ], [ -363026.275600001274142, 6536412.366400003433228 ], [ -383233.535000000149012, 6536412.366400003433228 ], [ -393337.164799999387469, 6553912.366400005295873 ], [ -413544.424199998320546, 6553912.366400005295873 ], [ -423648.053899999766145, 6536412.366400003433228 ], [ -413544.424199998320546, 6518912.366400003433228 ], [ -423648.053899999766145, 6501412.366400003433228 ], [ -443855.313299998582806, 6501412.366400003433228 ], [ -453958.942999999853782, 6518912.366400003433228 ], [ -474166.202399998903275, 6518912.366400003433228 ], [ -484269.832199998141732, 6536412.366400003433228 ], [ -504477.091600000858307, 6536412.366400003433228 ], [ -514580.721299998403993, 6518912.366400003433228 ], [ -504477.091600000858307, 6501412.366400003433228 ], [ -514580.721299998403993, 6483912.366400003433228 ], [ -534787.980700001120567, 6483912.366400003433228 ], [ -544891.610399998724461, 6466412.366400002501905 ], [ -534787.980700001120567, 6448912.366400003433228 ], [ -544891.610399998724461, 6431412.366400002501905 ], [ -565098.869800001382828, 6431412.366400002501905 ], [ -575202.499600000563078, 6448912.366400003433228 ], [ -595409.75899999961257, 6448912.366400003433228 ], [ -605513.388700000941753, 6466412.366400002501905 ], [ -625720.648099999758415, 6466412.366400002501905 ], [ -635824.277800001087599, 6448912.366400003433228 ], [ -656031.537200000253506, 6448912.366400003433228 ], [ -666135.16690000158269, 6431412.366400002501905 ], [ -686342.426399998250417, 6431412.366400002501905 ], [ -696446.056099999696016, 6448912.366400003433228 ], [ -716653.315499998629093, 6448912.366400003433228 ], [ -726756.945199999958277, 6431412.366400002501905 ], [ -746964.204599998891354, 6431412.366400002501905 ], [ -757067.834300000220537, 6448912.366400003433228 ], [ -746964.204599998891354, 6466412.366400002501905 ], [ -726756.945199999958277, 6466412.366400002501905 ], [ -716653.315499998629093, 6483912.366400003433228 ], [ -696446.056099999696016, 6483912.366400003433228 ], [ -686342.426399998250417, 6501412.366400003433228 ], [ -666135.16690000158269, 6501412.366400003433228 ], [ -656031.537200000253506, 6518912.366400003433228 ], [ -635824.277800001087599, 6518912.366400003433228 ], [ -625720.648099999758415, 6536412.366400003433228 ], [ -605513.388700000941753, 6536412.366400003433228 ], [ -595409.75899999961257, 6553912.366400005295873 ], [ -605513.388700000941753, 6571412.366400003433228 ], [ -595409.75899999961257, 6588912.366400003433228 ], [ -575202.499600000563078, 6588912.366400003433228 ], [ -565098.869800001382828, 6606412.366400003433228 ], [ -544891.610399998724461, 6606412.366400003433228 ], [ -534787.980700001120567, 6623912.366400003433228 ], [ -544891.610399998724461, 6641412.366400003433228 ], [ -534787.980700001120567, 6658912.366400003433228 ], [ -514580.721299998403993, 6658912.366400003433228 ], [ -504477.091600000858307, 6676412.366400003433228 ], [ -484269.832199998141732, 6676412.366400003433228 ], [ -474166.202399998903275, 6693912.366400003433228 ], [ -453958.942999999853782, 6693912.366400003433228 ], [ -443855.313299998582806, 6711412.366400001570582 ], [ -453958.942999999853782, 6728912.36640000436455 ], [ -443855.313299998582806, 6746412.366400003433228 ], [ -453958.942999999853782, 6763912.366400003433228 ], [ -443855.313299998582806, 6781412.366400003433228 ], [ -423648.053899999766145, 6781412.366400003433228 ], [ -413544.424199998320546, 6763912.366400003433228 ], [ -393337.164799999387469, 6763912.366400003433228 ], [ -383233.535000000149012, 6781412.366400003433228 ], [ -363026.275600001274142, 6781412.366400003433228 ] ] ] ] } },
{ "type": "Feature", "properties": { "fid": 8.0, "CTR_REG": "West Midlands" }, "geometry": { "type": "MultiPolygon", "coordinates": [ [ [ [ -302404.497400000633206, 7201412.366400003433228 ], [ -292300.867600001394749, 7183912.36640000436455 ], [ -272093.608199998736382, 7183912.36640000436455 ], [ -261989.978500001103384, 7166412.366400003433228 ], [ -272093.608199998736382, 7148912.366400003433228 ], [ -261989.978500001103384, 7131412.366400003433228 ], [ -241782.719099998532329, 7131412.366400003433228 ], [ -231679.089400000870228, 7113912.366400003433228 ], [ -211471.829999998182757, 7113912.366400003433228 ], [ -201368.20030000054976, 7096412.366400005295873 ], [ -211471.829999998182757, 7078912.366400002501905 ], [ -201368.20030000054976, 7061412.366400003433228 ], [ -211471.829999998182757, 7043912.366400002501905 ], [ -201368.20030000054976, 7026412.366400002501905 ], [ -211471.829999998182757, 7008912.366400003433228 ], [ -201368.20030000054976, 6991412.366400002501905 ], [ -211471.829999998182757, 6973912.366400002501905 ], [ -231679.089400000870228, 6973912.366400002501905 ], [ -241782.719099998532329, 6956412.366400002501905 ], [ -261989.978500001103384, 6956412.366400002501905 ], [ -272093.608199998736382, 6938912.366400002501905 ], [ -261989.978500001103384, 6921412.366400002501905 ], [ -272093.608199998736382, 6903912.366400001570582 ], [ -261989.978500001103384, 6886412.36640000436455 ], [ -272093.608199998736382, 6868912.36640000436455 ], [ -292300.867600001394749, 6868912.36640000436455 ], [ -302404.497400000633206, 6851412.366400002501905 ], [ -322611.756799999566283, 6851412.366400002501905 ], [ -332715.386500000895467, 6833912.366400002501905 ], [ -352922.645899999828544, 6833912.366400002501905 ], [ -363026.275600001274142, 6851412.366400002501905 ], [ -383233.535000000149012, 6851412.366400002501905 ], [ -393337.164799999387469, 6833912.366400002501905 ], [ -413544.424199998320546, 6833912.366400002501905 ], [ -423648.053899999766145, 6851412.366400002501905 ], [ -413544.424199998320546, 6868912.36640000436455 ], [ -423648.053899999766145, 6886412.36640000436455 ], [ -413544.424199998320546, 6903912.366400001570582 ], [ -423648.053899999766145, 6921412.366400002501905 ], [ -413544.424199998320546, 6938912.366400002501905 ], [ -423648.053899999766145, 6956412.366400002501905 ], [ -413544.424199998320546, 6973912.366400002501905 ], [ -423648.053899999766145, 6991412.366400002501905 ], [ -413544.424199998320546, 7008912.366400003433228 ], [ -423648.053899999766145, 7026412.366400002501905 ], [ -413544.424199998320546, 7043912.366400002501905 ], [ -423648.053899999766145, 7061412.366400003433228 ], [ -413544.424199998320546, 7078912.366400002501905 ], [ -393337.164799999387469, 7078912.366400002501905 ], [ -383233.535000000149012, 7096412.366400005295873 ], [ -393337.164799999387469, 7113912.366400003433228 ], [ -383233.535000000149012, 7131412.366400003433228 ], [ -363026.275600001274142, 7131412.366400003433228 ], [ -352922.645899999828544, 7148912.366400003433228 ], [ -363026.275600001274142, 7166412.366400003433228 ], [ -352922.645899999828544, 7183912.36640000436455 ], [ -363026.275600001274142, 7201412.366400003433228 ], [ -352922.645899999828544, 7218912.366400003433228 ], [ -363026.275600001274142, 7236412.366400003433228 ], [ -352922.645899999828544, 7253912.366400003433228 ], [ -332715.386500000895467, 7253912.366400003433228 ], [ -322611.756799999566283, 7271412.36640000436455 ], [ -302404.497400000633206, 7271412.36640000436455 ], [ -292300.867600001394749, 7253912.366400003433228 ], [ -302404.497400000633206, 7236412.366400003433228 ], [ -292300.867600001394749, 7218912.366400003433228 ], [ -302404.497400000633206, 7201412.366400003433228 ] ] ] ] } },
{ "type": "Feature", "properties": { "fid": 9.0, "CTR_REG": "Yorkshire and the Humber" }, "geometry": { "type": "MultiPolygon", "coordinates": [ [ [ [ -150850.051699999690754, 7463912.366400002501905 ], [ -140746.421999998361571, 7446412.36640000436455 ], [ -120539.162599999443046, 7446412.36640000436455 ], [ -110435.532900001824601, 7428912.366400002501905 ], [ -90228.27340000125696, 7428912.366400002501905 ], [ -80124.643699999855016, 7411412.366400002501905 ], [ -59917.384300000943767, 7411412.366400002501905 ], [ -49813.754599999643688, 7428912.366400002501905 ], [ -29606.495200000728801, 7428912.366400002501905 ], [ -19502.865499999315944, 7411412.366400002501905 ], [ -29606.495200000728801, 7393912.366400002501905 ], [ -19502.865499999315944, 7376412.366400002501905 ], [ 704.394000001239988, 7376412.366400002501905 ], [ 10808.023699998862867, 7358912.366400002501905 ], [ 31015.283100001459388, 7358912.366400002501905 ], [ 41118.912799999081471, 7341412.366400003433228 ], [ 31015.283100001459388, 7323912.366400003433228 ], [ 41118.912799999081471, 7306412.36640000436455 ], [ 31015.283100001459388, 7288912.366400003433228 ], [ 10808.023699998862867, 7288912.366400003433228 ], [ 704.394000001239988, 7271412.36640000436455 ], [ 10808.023699998862867, 7253912.366400003433228 ], [ 704.394000001239988, 7236412.366400003433228 ], [ 10808.023699998862867, 7218912.366400003433228 ], [ 31015.283100001459388, 7218912.366400003433228 ], [ 41118.912799999081471, 7201412.366400003433228 ], [ 31015.283100001459388, 7183912.36640000436455 ], [ 41118.912799999081471, 7166412.366400003433228 ], [ 31015.283100001459388, 7148912.366400003433228 ], [ 41118.912799999081471, 7131412.366400003433228 ], [ 31015.283100001459388, 7113912.366400003433228 ], [ 10808.023699998862867, 7113912.366400003433228 ], [ 704.394000001239988, 7131412.366400003433228 ], [ 10808.023699998862867, 7148912.366400003433228 ], [ 704.394000001239988, 7166412.366400003433228 ], [ 10808.023699998862867, 7183912.36640000436455 ], [ 704.394000001239988, 7201412.366400003433228 ], [ -19502.865499999315944, 7201412.366400003433228 ], [ -29606.495200000728801, 7183912.36640000436455 ], [ -49813.754599999643688, 7183912.36640000436455 ], [ -59917.384300000943767, 7166412.366400003433228 ], [ -80124.643699999855016, 7166412.366400003433228 ], [ -90228.27340000125696, 7148912.366400003433228 ], [ -110435.532900001824601, 7148912.366400003433228 ], [ -120539.162599999443046, 7166412.366400003433228 ], [ -140746.421999998361571, 7166412.366400003433228 ], [ -150850.051699999690754, 7183912.36640000436455 ], [ -171057.311099998682039, 7183912.36640000436455 ], [ -181160.940799999982119, 7201412.366400003433228 ], [ -171057.311099998682039, 7218912.366400003433228 ], [ -181160.940799999982119, 7236412.366400003433228 ], [ -171057.311099998682039, 7253912.366400003433228 ], [ -181160.940799999982119, 7271412.36640000436455 ], [ -201368.20030000054976, 7271412.36640000436455 ], [ -211471.829999998182757, 7253912.366400003433228 ], [ -231679.089400000870228, 7253912.366400003433228 ], [ -241782.719099998532329, 7271412.36640000436455 ], [ -231679.089400000870228, 7288912.366400003433228 ], [ -241782.719099998532329, 7306412.36640000436455 ], [ -231679.089400000870228, 7323912.366400003433228 ], [ -211471.829999998182757, 7323912.366400003433228 ], [ -201368.20030000054976, 7341412.366400003433228 ], [ -211471.829999998182757, 7358912.366400002501905 ], [ -201368.20030000054976, 7376412.366400002501905 ], [ -211471.829999998182757, 7393912.366400002501905 ], [ -201368.20030000054976, 7411412.366400002501905 ], [ -181160.940799999982119, 7411412.366400002501905 ], [ -171057.311099998682039, 7428912.366400002501905 ], [ -181160.940799999982119, 7446412.36640000436455 ], [ -171057.311099998682039, 7463912.366400002501905 ], [ -150850.051699999690754, 7463912.366400002501905 ] ] ] ] } }
]
}
